RADUGA 1 [-]            
1 08513U 75123A   23080.63434846 -.00000111  00000+0  00000+0 0  9998
2 08513   5.8533 284.7180 0006461 219.7114 337.0912  1.00297104182948
RADUGA 2 [-]            
1 09416U 76092A   23081.49255684 -.00000218  00000+0  00000+0 0  9991
2 09416   6.5164 286.7497 0027023   7.6039 148.9276  1.00266897117472
RADUGA 3 [-]            
1 10159U 77071A   23080.69645780  .00000095  00000+0  00000+0 0  9998
2 10159   7.1380 289.4522 0008104 241.2963 308.2441  1.00209559165172
RADUGA 4 [-]            
1 10987U 78073A   23080.62688486 -.00000172  00000+0  00000+0 0  9990
2 10987   7.7716 293.0846 0008483  13.3963 177.0605  1.00350721107738
RADUGA 5 [-]            
1 11343U 79035A   23080.62907941 -.00000073  00000+0  00000+0 0  9996
2 11343   8.2361 295.9383 0006459 170.1045  10.1867  1.00249221117480
RADUGA 6 [-]            
1 11708U 80016A   23081.49630493 -.00000360  00000+0  00000+0 0  9992
2 11708   8.6029 299.1005 0002218 182.8289 341.4381  1.00298869110291
RADUGA 7 [-]            
1 12003U 80081A   23080.96748838 -.00000246  00000+0  00000+0 0  9990
2 12003   8.7944 301.1165 0008181 270.1348 286.7194  1.00248941111559
RADUGA 8 [-]            
1 12351U 81027A   23080.48948662 -.00000068  00000+0  00000+0 0  9993
2 12351   9.1285 301.6784 0080759 235.5497 344.4713  1.00344689110667
RADUGA 9 [-]            
1 12618U 81069A   23080.05882637 -.00000373  00000+0  00000+0 0  9996
2 12618   9.3604 304.7635 0004175 140.0353 221.6310  1.00317939 35470
RADUGA 10 [-]           
1 12897U 81102A   23080.63099705 -.00000167  00000+0  00000+0 0  9994
2 12897   9.4480 305.7722 0005322 179.2446   1.4421  1.00251349105479
RADUGA 11 [-]           
1 13669U 82113A   23079.96074444 -.00000174  00000+0  00000+0 0  9990
2 13669  11.5541 319.8491 0037692 260.4557 305.6482  0.97710016109969
RADUGA 12 [-]           
1 13974U 83028A   23080.70273367 -.00000181  00000+0  00000+0 0  9992
2 13974  10.6387 315.7409 0003001  99.5462  97.4019  1.00291318157513
RADUGA 13 [-]           
1 14307U 83088A   23080.70238501 -.00000024  00000+0  00000+0 0  9996
2 14307  11.8127 321.3694 0016232  47.3197 142.2490  0.98172360107321
RADUGA 14 [-]           
1 14725U 84016A   23080.82705726 -.00000106  00000+0  00000+0 0  9994
2 14725  10.8668 319.5986 0005266 130.3235 100.9161  1.00245336106219
RADUGA 15 [-]           
1 15057U 84063A   23079.58660441 -.00000387  00000+0  00000+0 0  9991
2 15057  10.9959 320.5949 0005332 156.9525  26.6192  1.00207569129223
RADUGA 16 [-]           
1 15946U 85070A   23081.21889851  .00000030  00000+0  00000+0 0  9992
2 15946  11.4892 325.3071 0002010 145.3321  17.3123  1.00370107110351
RADUGA 17 [-]           
1 16250U 85107A   23080.66522648  .00000068  00000+0  00000+0 0  9999
2 16250  11.6216 326.7353 0012725 187.2695  95.9415  1.00171846139810
RADUGA 18 [-]           
1 16497U 86007A   23081.39137914 -.00000085  00000+0  00000+0 0  9991
2 16497  12.4424 329.4730 0074261 170.3715  22.7667  0.98813656134226
RADUGA 19 [-]           
1 17046U 86082A   23081.20119648 -.00000015  00000+0  00000+0 0  9992
2 17046  12.9010 333.4554 0013251 149.2789  23.8974  0.98458861131302
RADUGA 20 [-]           
1 17611U 87028A   23081.42896486 -.00000149  00000+0  00000+0 0  9995
2 17611  14.9353 336.9398 0031113 141.3753  48.1994  0.95961929126944
RADUGA 21 [-]           
1 18631U 87100A   23080.27271580 -.00000083  00000+0  00000+0 0  9990
2 18631  13.0030 334.1928 0003572 127.4560  61.9386  1.00361208129219
RADUGA 22 [-]           
1 19596U 88095A   23080.77054788  .00000023  00000+0  00000+0 0  9992
2 19596  13.0184 338.5791 0007595 137.8014  41.1929  1.00162791109783
RADUGA 23 [-]           
1 19928U 89030A   23079.81592052 -.00000341  00000+0  00000+0 0  9999
2 19928  13.1841 340.4066 0020975 166.5104  65.0668  1.00345591122967
RADUGA-1 1 [-]          
1 20083U 89048A   23081.03983514 -.00000249  00000+0  00000+0 0  9993
2 20083  13.9594 343.5002 0022720 119.9736  63.6077  0.98710681119585
RADUGA 24 [-]           
1 20367U 89098A   23079.93215646  .00000093  00000+0  00000+0 0  9999
2 20367  13.7790 342.6249 0002001 135.4308  81.3446  1.00291745121092
RADUGA 25 [-]           
1 20499U 90016A   23081.15683172  .00000069  00000+0  00000+0 0  9990
2 20499  13.5517 343.3114 0005087 137.9380 336.1915  1.00183882121089
RADUGA 26 [-]           
1 21016U 90112A   23078.80813407 -.00000299  00000+0  00000+0 0  9993
2 21016  13.8964 346.5787 0007653  95.4476 121.0520  1.00292489118353
RADUGA-1 2 [-]          
1 21038U 90116A   23080.88590949 -.00000115  00000+0  00000+0 0  9992
2 21038  13.9351 346.6309 0008745 106.3822 118.1783  1.00330496118044
RADUGA 27 [-]           
1 21132U 91014A   23080.76967625  .00000020  00000+0  00000+0 0  9995
2 21132  14.4414 346.0957 0003952  91.5706  74.9310  1.00370434117443
RADUGA 28 [-]           
1 21821U 91087A   23080.97791457  .00000108  00000+0  00000+0 0  9998
2 21821  14.2409 349.9012 0007461 122.2422 100.2280  1.00218368114487
RADUGA 29 [-]           
1 22557U 93013A   23079.67855113 -.00000372  00000+0  00000+0 0  9995
2 22557  14.4863 354.0830 0007407 118.7048  55.9681  1.00361305109800
RADUGA 30 [-]           
1 22836U 93062A   23080.89146677 -.00000067  00000+0  00000+0 0  9994
2 22836  14.5458 356.0592 0001728  15.3742 197.7483  1.00273743107903
RADUGA-1 3 [-]          
1 22981U 94008A   23078.88823287  .00000004  00000+0  00000+0 0  9991
2 22981  14.6347 357.2213 0004069  96.0760 105.6276  1.00222886106596
RADUGA 31 [-]           
1 23010U 94012A   23080.84808336 -.00000341  00000+0  00000+0 0  9992
2 23010  14.6034 357.1997 0005636  97.7039 130.4238  1.00307175106475
RADUGA 32 [-]           
1 23448U 94087A   23080.88590949 -.00000075  00000+0  00000+0 0  9995
2 23448  14.6129 359.9290 0004330 205.2544   2.9068  1.00272188121070
RADUGA-1 4 [-]          
1 25642U 99010A   23080.68660486 -.00000238  00000+0  00000+0 0  9997
2 25642  15.2935  11.4147 0001394 282.3240 218.1844  1.00352352 88085
RADUGA-1 5 [-]          
1 26477U 00049A   23080.36299118 -.00000150  00000+0  00000+0 0  9996
2 26477  13.2886  16.5331 0005745  58.7858 310.6021  1.00340723 82550
RADUGA-1 6 [-]          
1 26936U 01045A   23080.77912803 -.00000096  00000+0  00000+0 0  9990
2 26936  13.5174  22.9155 0015370 169.1191  11.8669  0.97744083 77037
RADUGA-1 7 [-]          
1 28194U 04010A   23080.41855194 -.00000033  00000+0  00000+0 0  9994
2 28194  12.2904  29.6822 0001104 182.0277 186.0855  1.00165656 69554
RADUGA-1M 1 [-]         
1 32373U 07058A   23081.14771606  .00000059  00000+0  00000+0 0  9996
2 32373   7.5132  62.0493 0004174 341.8970 225.1925  0.99396050 56558
RADUGA-1 8 [-]          
1 34264U 09010A   23080.61827098  .00000015  00000+0  00000+0 0  9997
2 34264   9.7725  51.9499 0014253   5.1561   1.1343  0.99827467 51360
RADUGA-1M 2 [+]         
1 36358U 10002A   23079.90118802 -.00000200  00000+0  00000+0 0  9999
2 36358   0.5460  95.9092 0004185 282.4018 209.2295  1.00269166 48135
RADUGA-1M 3 [+]         
1 39375U 13062A   23081.15327318  .00000141  00000+0  00000+0 0  9997
2 39375   2.9356  86.6722 0000977 197.3740 345.4752  1.00273714 34269
